CCSDS_OMM_VERS = 2.0
CREATION_DATE  = 
ORIGINATOR     = 

OBJECT_NAME    = ATLAS CENTAUR R/B
OBJECT_ID      = 1972-065B
CENTER_NAME    = EARTH
REF_FRAME      = TEME
TIME_SYSTEM    = UTC
MEAN_ELEMENT_THEORY = SGP/SGP4

EPOCH          = 2025-12-04T03:28:11.713728
MEAN_MOTION    = 14.77371516
ECCENTRICITY   = .00345842
INCLINATION    = 35.0000
RA_OF_ASC_NODE = 145.5456
ARG_OF_PERICENTER = 286.3916
MEAN_ANOMALY   = 73.2984

EPHEMERIS_TYPE = 0
CLASSIFICATION_TYPE = U
NORAD_CAT_ID   = 6155
ELEMENT_SET_NO = 999
REV_AT_EPOCH   = 82712
BSTAR          = .30609022E-3
MEAN_MOTION_DOT = .2211E-4
MEAN_MOTION_DDOT = 0

CCSDS_OMM_VERS = 2.0
CREATION_DATE  = 
ORIGINATOR     = 

OBJECT_NAME    = SL-8 R/B
OBJECT_ID      = 1975-112B
CENTER_NAME    = EARTH
REF_FRAME      = TEME
TIME_SYSTEM    = UTC
MEAN_ELEMENT_THEORY = SGP/SGP4

EPOCH          = 2025-12-04T01:34:38.498304
MEAN_MOTION    = 14.38136750
ECCENTRICITY   = .00164636
INCLINATION    = 74.0596
RA_OF_ASC_NODE = 194.8126
ARG_OF_PERICENTER = 307.0944
MEAN_ANOMALY   = 52.8704

EPHEMERIS_TYPE = 0
CLASSIFICATION_TYPE = U
NORAD_CAT_ID   = 8459
ELEMENT_SET_NO = 999
REV_AT_EPOCH   = 61812
BSTAR          = .18330589E-3
MEAN_MOTION_DOT = .53E-5
MEAN_MOTION_DDOT = 0

CCSDS_OMM_VERS = 2.0
CREATION_DATE  = 
ORIGINATOR     = 

OBJECT_NAME    = SL-3 R/B
OBJECT_ID      = 1977-057B
CENTER_NAME    = EARTH
REF_FRAME      = TEME
TIME_SYSTEM    = UTC
MEAN_ELEMENT_THEORY = SGP/SGP4

EPOCH          = 2025-12-04T06:13:36.396192
MEAN_MOTION    = 15.42639792
ECCENTRICITY   = .00064203
INCLINATION    = 97.5676
RA_OF_ASC_NODE = 141.2591
ARG_OF_PERICENTER = 268.4117
MEAN_ANOMALY   = 91.6395

EPHEMERIS_TYPE = 0
CLASSIFICATION_TYPE = U
NORAD_CAT_ID   = 10114
ELEMENT_SET_NO = 999
REV_AT_EPOCH   = 65360
BSTAR          = .53914776E-3
MEAN_MOTION_DOT = .23443E-3
MEAN_MOTION_DDOT = 0

CCSDS_OMM_VERS = 2.0
CREATION_DATE  = 
ORIGINATOR     = 

OBJECT_NAME    = SEASAT 1
OBJECT_ID      = 1978-064A
CENTER_NAME    = EARTH
REF_FRAME      = TEME
TIME_SYSTEM    = UTC
MEAN_ELEMENT_THEORY = SGP/SGP4

EPOCH          = 2025-12-04T02:30:11.969280
MEAN_MOTION    = 14.46046535
ECCENTRICITY   = .00018549
INCLINATION    = 108.0100
RA_OF_ASC_NODE = 284.9178
ARG_OF_PERICENTER = 250.1259
MEAN_ANOMALY   = 109.9687

EPHEMERIS_TYPE = 0
CLASSIFICATION_TYPE = U
NORAD_CAT_ID   = 10967
ELEMENT_SET_NO = 999
REV_AT_EPOCH   = 49269
BSTAR          = .29841929E-3
MEAN_MOTION_DOT = .929E-5
MEAN_MOTION_DDOT = 0

CCSDS_OMM_VERS = 2.0
CREATION_DATE  = 
ORIGINATOR     = 

OBJECT_NAME    = SL-14 R/B
OBJECT_ID      = 1979-011B
CENTER_NAME    = EARTH
REF_FRAME      = TEME
TIME_SYSTEM    = UTC
MEAN_ELEMENT_THEORY = SGP/SGP4

EPOCH          = 2025-12-04T01:38:04.161408
MEAN_MOTION    = 14.91754107
ECCENTRICITY   = .00166823
INCLINATION    = 82.5242
RA_OF_ASC_NODE = 187.2682
ARG_OF_PERICENTER = 21.9421
MEAN_ANOMALY   = 338.2509

EPHEMERIS_TYPE = 0
CLASSIFICATION_TYPE = U
NORAD_CAT_ID   = 11267
ELEMENT_SET_NO = 999
REV_AT_EPOCH   = 51452
BSTAR          = .1000878E-3
MEAN_MOTION_DOT = .1036E-4
MEAN_MOTION_DDOT = 0

CCSDS_OMM_VERS = 2.0
CREATION_DATE  = 
ORIGINATOR     = 

OBJECT_NAME    = SL-8 R/B
OBJECT_ID      = 1979-089B
CENTER_NAME    = EARTH
REF_FRAME      = TEME
TIME_SYSTEM    = UTC
MEAN_ELEMENT_THEORY = SGP/SGP4

EPOCH          = 2025-12-04T05:38:49.535520
MEAN_MOTION    = 14.42274708
ECCENTRICITY   = .00144585
INCLINATION    = 74.0691
RA_OF_ASC_NODE = 267.7187
ARG_OF_PERICENTER = 105.7919
MEAN_ANOMALY   = 254.4832

EPHEMERIS_TYPE = 0
CLASSIFICATION_TYPE = U
NORAD_CAT_ID   = 11574
ELEMENT_SET_NO = 999
REV_AT_EPOCH   = 42234
BSTAR          = .20325138E-3
MEAN_MOTION_DOT = .645E-5
MEAN_MOTION_DDOT = 0

CCSDS_OMM_VERS = 2.0
CREATION_DATE  = 
ORIGINATOR     = 

OBJECT_NAME    = SL-14 R/B
OBJECT_ID      = 1980-005B
CENTER_NAME    = EARTH
REF_FRAME      = TEME
TIME_SYSTEM    = UTC
MEAN_ELEMENT_THEORY = SGP/SGP4

EPOCH          = 2025-12-04T05:16:25.938624
MEAN_MOTION    = 14.90776715
ECCENTRICITY   = .00171437
INCLINATION    = 82.5155
RA_OF_ASC_NODE = 37.7791
ARG_OF_PERICENTER = 119.4393
MEAN_ANOMALY   = 240.8540

EPHEMERIS_TYPE = 0
CLASSIFICATION_TYPE = U
NORAD_CAT_ID   = 11672
ELEMENT_SET_NO = 999
REV_AT_EPOCH   = 46226
BSTAR          = .11949751E-3
MEAN_MOTION_DOT = .1203E-4
MEAN_MOTION_DDOT = 0

CCSDS_OMM_VERS = 2.0
CREATION_DATE  = 
ORIGINATOR     = 

OBJECT_NAME    = SL-8 R/B
OBJECT_ID      = 1981-003B
CENTER_NAME    = EARTH
REF_FRAME      = TEME
TIME_SYSTEM    = UTC
MEAN_ELEMENT_THEORY = SGP/SGP4

EPOCH          = 2025-12-04T02:30:44.275104
MEAN_MOTION    = 15.06643938
ECCENTRICITY   = .02808326
INCLINATION    = 82.9293
RA_OF_ASC_NODE = 18.1510
ARG_OF_PERICENTER = 150.0126
MEAN_ANOMALY   = 211.7533

EPHEMERIS_TYPE = 0
CLASSIFICATION_TYPE = U
NORAD_CAT_ID   = 12139
ELEMENT_SET_NO = 999
REV_AT_EPOCH   = 30026
BSTAR          = .86890905E-3
MEAN_MOTION_DOT = .3256E-3
MEAN_MOTION_DDOT = 0

CCSDS_OMM_VERS = 2.0
CREATION_DATE  = 
ORIGINATOR     = 

OBJECT_NAME    = SL-3 R/B
OBJECT_ID      = 1981-046B
CENTER_NAME    = EARTH
REF_FRAME      = TEME
TIME_SYSTEM    = UTC
MEAN_ELEMENT_THEORY = SGP/SGP4

EPOCH          = 2025-12-04T07:25:57.546912
MEAN_MOTION    = 15.39346144
ECCENTRICITY   = .00195032
INCLINATION    = 81.2343
RA_OF_ASC_NODE = 44.0207
ARG_OF_PERICENTER = 354.0422
MEAN_ANOMALY   = 6.0584

EPHEMERIS_TYPE = 0
CLASSIFICATION_TYPE = U
NORAD_CAT_ID   = 12465
ELEMENT_SET_NO = 999
REV_AT_EPOCH   = 42374
BSTAR          = .56287195E-3
MEAN_MOTION_DOT = .22184E-3
MEAN_MOTION_DDOT = 0

CCSDS_OMM_VERS = 2.0
CREATION_DATE  = 
ORIGINATOR     = 

OBJECT_NAME    = SL-3 R/B
OBJECT_ID      = 1981-103B
CENTER_NAME    = EARTH
REF_FRAME      = TEME
TIME_SYSTEM    = UTC
MEAN_ELEMENT_THEORY = SGP/SGP4

EPOCH          = 2025-12-04T07:12:40.881888
MEAN_MOTION    = 15.20076009
ECCENTRICITY   = .00113526
INCLINATION    = 81.1585
RA_OF_ASC_NODE = 325.2373
ARG_OF_PERICENTER = 245.7213
MEAN_ANOMALY   = 114.2833

EPHEMERIS_TYPE = 0
CLASSIFICATION_TYPE = U
NORAD_CAT_ID   = 12904
ELEMENT_SET_NO = 999
REV_AT_EPOCH   = 95873
BSTAR          = .63522727E-3
MEAN_MOTION_DOT = .13768E-3
MEAN_MOTION_DDOT = 0

CCSDS_OMM_VERS = 2.0
CREATION_DATE  = 
ORIGINATOR     = 

OBJECT_NAME    = SL-3 R/B
OBJECT_ID      = 1982-013B
CENTER_NAME    = EARTH
REF_FRAME      = TEME
TIME_SYSTEM    = UTC
MEAN_ELEMENT_THEORY = SGP/SGP4

EPOCH          = 2025-12-04T06:55:37.680384
MEAN_MOTION    = 15.20965521
ECCENTRICITY   = .0023677
INCLINATION    = 81.1754
RA_OF_ASC_NODE = 272.4996
ARG_OF_PERICENTER = 138.0285
MEAN_ANOMALY   = 222.2767

EPHEMERIS_TYPE = 0
CLASSIFICATION_TYPE = U
NORAD_CAT_ID   = 13068
ELEMENT_SET_NO = 999
REV_AT_EPOCH   = 38984
BSTAR          = .44975121E-3
MEAN_MOTION_DOT = .10066E-3
MEAN_MOTION_DDOT = 0

CCSDS_OMM_VERS = 2.0
CREATION_DATE  = 
ORIGINATOR     = 

OBJECT_NAME    = SL-3 R/B
OBJECT_ID      = 1982-039B
CENTER_NAME    = EARTH
REF_FRAME      = TEME
TIME_SYSTEM    = UTC
MEAN_ELEMENT_THEORY = SGP/SGP4

EPOCH          = 2025-12-04T08:28:43.870656
MEAN_MOTION    = 15.09446934
ECCENTRICITY   = .00302448
INCLINATION    = 81.1726
RA_OF_ASC_NODE = 325.7443
ARG_OF_PERICENTER = 280.7364
MEAN_ANOMALY   = 79.0457

EPHEMERIS_TYPE = 0
CLASSIFICATION_TYPE = U
NORAD_CAT_ID   = 13154
ELEMENT_SET_NO = 999
REV_AT_EPOCH   = 36725
BSTAR          = .42666292E-3
MEAN_MOTION_DOT = .6923E-4
MEAN_MOTION_DDOT = 0

