ATLAS CENTAUR R/B       
1 06155U 72065B   25338.14458002  .00002211  00000+0  30609-3 0  9998
2 06155  35.0000 145.5456 0034584 286.3916  73.2984 14.77371516827121
SL-8 R/B                
1 08459U 75112B   25338.06572336  .00000530  00000+0  18331-3 0  9991
2 08459  74.0596 194.8126 0016463 307.0944  52.8704 14.38136750618129
SL-3 R/B                
1 10114U 77057B   25338.25944903  .00023443  00000+0  53915-3 0  9991
2 10114  97.5676 141.2591 0006420 268.4117  91.6395 15.42639792653604
SEASAT 1                
1 10967U 78064A   25338.10430520  .00000929  00000+0  29842-3 0  9991
2 10967 108.0100 284.9178 0001854 250.1259 109.9687 14.46046535492694
SL-14 R/B               
1 11267U 79011B   25338.06810372  .00001036  00000+0  10009-3 0  9995
2 11267  82.5242 187.2682 0016682  21.9421 338.2509 14.91754107514524
SL-8 R/B                
1 11574U 79089B   25338.23529555  .00000645  00000+0  20325-3 0  9997
2 11574  74.0691 267.7187 0014458 105.7919 254.4832 14.42274708422341
SL-14 R/B               
1 11672U 80005B   25338.21974466  .00001203  00000+0  11950-3 0  9994
2 11672  82.5155  37.7791 0017143 119.4393 240.8540 14.90776715462265
SL-8 R/B                
1 12139U 81003B   25338.10467911  .00032560  00000+0  86891-3 0  9998
2 12139  82.9293  18.1510 0280832 150.0126 211.7533 15.06643938300263
SL-3 R/B                
1 12465U 81046B   25338.30969383  .00022184  00000+0  56287-3 0  9996
2 12465  81.2343  44.0207 0019503 354.0422   6.0584 15.39346144423749
SL-3 R/B                
1 12904U 81103B   25338.30047317  .00013768  00000+0  63523-3 0  9991
2 12904  81.1585 325.2373 0011352 245.7213 114.2833 15.20076009958731
SL-3 R/B                
1 13068U 82013B   25338.28863056  .00010066  00000+0  44975-3 0  9995
2 13068  81.1754 272.4996 0023677 138.0285 222.2767 15.20965521389843
SL-3 R/B                
1 13154U 82039B   25338.35328554  .00006923  00000+0  42666-3 0  9998
2 13154  81.1726 325.7443 0030244 280.7364  79.0457 15.09446934367252
